[{"OBJECT_NAME":"STARLINK-3818","OBJECT_ID":"2022-045K","EPOCH":"2026-03-09T15:44:21.483744","MEAN_MOTION":15.08839649,"ECCENTRICITY":0.0001086,"INCLINATION":53.2175,"RA_OF_ASC_NODE":199.2718,"ARG_OF_PERICENTER":85.5565,"MEAN_ANOMALY":274.5551,"EPHEMERIS_TYPE":0,"CLASSIFICATION_TYPE":"U","NORAD_CAT_ID":52340,"ELEMENT_SET_NO":999,"REV_AT_EPOCH":21576,"BSTAR":1.098875e-5,"MEAN_MOTION_DOT":-1.13e-6,"MEAN_MOTION_DDOT":0},{"OBJECT_NAME":"COSMOS 249 DEB","OBJECT_ID":"1968-091S","EPOCH":"2026-03-09T23:11:16.315584","MEAN_MOTION":14.62767046,"ECCENTRICITY":0.02830409,"INCLINATION":62.2933,"RA_OF_ASC_NODE":296.5114,"ARG_OF_PERICENTER":188.6799,"MEAN_ANOMALY":170.9327,"EPHEMERIS_TYPE":0,"CLASSIFICATION_TYPE":"U","NORAD_CAT_ID":3584,"ELEMENT_SET_NO":999,"REV_AT_EPOCH":84837,"BSTAR":0.0011832557,"MEAN_MOTION_DOT":0.00010675,"MEAN_MOTION_DDOT":0}]
